COMMENT,ORIGINATOR,NORAD_CAT_ID,OBJECT_NAME,OBJECT_TYPE,CLASSIFICATION_TYPE,INTLDES,EPOCH,EPOCH_MICROSECONDS,MEAN_MOTION,ECCENTRICITY,INCLINATION,RA_OF_ASC_NODE,ARG_OF_PERICENTER,MEAN_ANOMALY,EPHEMERIS_TYPE,ELEMENT_SET_NO,REV_AT_EPOCH,BSTAR,MEAN_MOTION_DOT,MEAN_MOTION_DDOT,FILE,TLE_LINE0,TLE_LINE1,TLE_LINE2,OBJECT_ID,OBJECT_NUMBER,SEMIMAJOR_AXIS,PERIOD,APOGEE,PERIGEE,DECAYED,date
GENERATED VIA SPACETRACK.ORG API,18 SPCS,48893,SPACEBEE-106,PAYLOAD,U,21059Q,2023/4/2 8:37,446432,15.2637905,0.0008389,97.5852,227.876,183.135,176.9837,0,999,9780,0.0016569,0.00043266,0,3878126,0 SPACEBEE-106,1 48893U 21059Q   23092.35953063  .00043266  00000-0  16569-2 0  9999,2 48893  97.5852 227.8760 0008389 183.1350 176.9837 15.26379050 97804,2021-059Q,48893,6864.785,94.341,492.408,480.891,0,
GENERATED VIA SPACETRACK.ORG API,18 SPCS,48893,SPACEBEE-106,PAYLOAD,U,21059Q,2023/4/2 21:12,538496,15.2641555,0.0008341,97.5853,228.4085,181.6241,178.4971,0,999,9788,0.0012932,0.00033746,0,3878419,0 SPACEBEE-106,1 48893U 21059Q   23092.88397614  .00033746  00000-0  12932-2 0  9993,2 48893  97.5853 228.4085 0008341 181.6241 178.4971 15.26415550 97882,2021-059Q,48893,6864.675,94.339,492.266,480.814,0,
GENERATED VIA SPACETRACK.ORG API,18 SPCS,48893,SPACEBEE-106,PAYLOAD,U,21059Q,2023/4/2 22:47,477536,15.26419404,0.0008363,97.5853,228.475,181.3744,178.7473,0,999,9789,0.001263,0.00032957,0,3878523,0 SPACEBEE-106,1 48893U 21059Q   23092.94953099  .00032957  00000-0  12630-2 0  9993,2 48893  97.5853 228.4750 0008363 181.3744 178.7473 15.26419404 97893,2021-059Q,48893,6864.664,94.338,492.269,480.788,0,
GENERATED VIA SPACETRACK.ORG API,18 SPCS,48893,SPACEBEE-106,PAYLOAD,U,21059Q,2023/4/3 14:31,777568,15.26470719,0.0008347,97.5854,229.1406,179.4746,180.6503,0,999,9799,0.0014114,0.00036914,0,3879059,0 SPACEBEE-106,1 48893U 21059Q   23093.60506687  .00036914  00000-0  14114-2 0  9990,2 48893  97.5854 229.1406 0008347 179.4746 180.6503 15.26470719 97995,2021-059Q,48893,6864.51,94.335,492.104,480.645,0,
GENERATED VIA SPACETRACK.ORG API,18 SPCS,48893,SPACEBEE-106,PAYLOAD,U,21059Q,2023/4/3 22:23,176768,15.26499743,0.0008313,97.5854,229.4733,178.5792,181.5471,0,999,9804,0.0015018,0.0003933,0,3879442,0 SPACEBEE-106,1 48893U 21059Q   23093.93282612  .00039330  00000-0  15018-2 0  9994,2 48893  97.5854 229.4733 0008313 178.5792 181.5471 15.26499743 98044,2021-059Q,48893,6864.423,94.333,491.994,480.581,0,
GENERATED VIA SPACETRACK.ORG API,18 SPCS,48893,SPACEBEE-106,PAYLOAD,U,21059Q,2023/4/4 14:07,577216,15.26550469,0.0008358,97.5858,230.139,176.2371,183.8932,0,999,9814,0.0014578,0.00038229,0,3879974,0 SPACEBEE-106,1 48893U 21059Q   23094.58832844  .00038229  00000-0  14578-2 0  9990,2 48893  97.5858 230.1390 0008358 176.2371 183.8932 15.26550469 98144,2021-059Q,48893,6864.271,94.33,491.873,480.398,0,
GENERATED VIA SPACETRACK.ORG API,18 SPCS,48893,SPACEBEE-106,PAYLOAD,U,21059Q,2023/4/4 21:59,564640,15.26574649,0.0008355,97.5859,230.4717,174.9637,185.1687,0,999,9819,0.0013413,0.00035179,0,3880211,0 SPACEBEE-106,1 48893U 21059Q   23094.91607135  .00035179  00000-0  13413-2 0  9998,2 48893  97.5859 230.4717 0008355 174.9637 185.1687 15.26574649 98191,2021-059Q,48893,6864.198,94.329,491.798,480.328,0,
GENERATED VIA SPACETRACK.ORG API,18 SPCS,48893,SPACEBEE-106,PAYLOAD,U,21059Q,2023/4/5 8:59,560448,15.2661213,0.0008372,97.5859,230.9378,173.0275,187.1081,0,999,9826,0.0014574,0.0003829,0,3880725,0 SPACEBEE-106,1 48893U 21059Q   23095.37490232  .00038290  00000-0  14574-2 0  9993,2 48893  97.5859 230.9378 0008372 173.0275 187.1081 15.26612130 98262,2021-059Q,48893,6864.086,94.327,491.697,480.204,0,
GENERATED VIA SPACETRACK.ORG API,18 SPCS,48893,SPACEBEE-106,PAYLOAD,U,21059Q,2023/4/5 8:59,560448,15.2661213,0.0008372,97.5859,230.9378,173.0275,187.1081,0,999,9826,0.0014574,0.0003829,0,3880853,0 SPACEBEE-106,1 48893U 21059Q   23095.37490232  .00038290  00000-0  14574-2 0  9993,2 48893  97.5859 230.9378 0008372 173.0275 187.1081 15.26612130 98262,2021-059Q,48893,6864.086,94.327,491.697,480.204,0,
GENERATED VIA SPACETRACK.ORG API,18 SPCS,48893,SPACEBEE-106,PAYLOAD,U,21059Q,2023/4/5 20:00,713856,15.26644326,0.0008346,97.5863,231.4039,171.4663,188.6719,0,999,9833,0.0013518,0.00035531,0,3881153,0 SPACEBEE-106,1 48893U 21059Q   23095.83372354  .00035531  00000-0  13518-2 0  9990,2 48893  97.5863 231.4039 0008346 171.4663 188.6719 15.26644326 98335,2021-059Q,48893,6863.989,94.325,491.583,480.126,0,
GENERATED VIA SPACETRACK.ORG API,18 SPCS,48893,SPACEBEE-106,PAYLOAD,U,21059Q,2023/4/6 8:35,945248,15.2668204,0.0008311,97.5866,231.9367,169.9161,190.2246,0,999,9841,0.0013522,0.00035582,0,3881771,0 SPACEBEE-106,1 48893U 21059Q   23096.35807807  .00035582  00000-0  13522-2 0  9995,2 48893  97.5866 231.9367 0008311 169.9161 190.2246 15.26682040 98412,2021-059Q,48893,6863.876,94.322,491.446,480.037,0,
GENERATED VIA SPACETRACK.ORG API,18 SPCS,48893,SPACEBEE-106,PAYLOAD,U,21059Q,2023/4/6 14:53,640608,15.26699402,0.0008311,97.5866,232.2031,169.0554,191.0867,0,999,9845,0.0012881,0.00033902,0,3881862,0 SPACEBEE-106,1 48893U 21059Q   23096.62025047  .00033902  00000-0  12881-2 0  9994,2 48893  97.5866 232.2031 0008311 169.0554 191.0867 15.26699402 98453,2021-059Q,48893,6863.824,94.321,491.394,479.985,0,
GENERATED VIA SPACETRACK.ORG API,18 SPCS,48893,SPACEBEE-106,PAYLOAD,U,21059Q,2023/4/6 14:53,640608,15.26699402,0.0008311,97.5866,232.2031,169.0554,191.0867,0,999,9845,0.0012881,0.00033902,0,3882049,0 SPACEBEE-106,1 48893U 21059Q   23096.62025047  .00033902  00000-0  12881-2 0  9994,2 48893  97.5866 232.2031 0008311 169.0554 191.0867 15.26699402 98453,2021-059Q,48893,6863.824,94.321,491.394,479.985,0,
GENERATED VIA SPACETRACK.ORG API,18 SPCS,48893,SPACEBEE-106,PAYLOAD,U,21059Q,2023/4/7 8:11,394528,15.26752139,0.0008235,97.5869,232.9355,167.1207,193.0244,0,999,9856,0.0013714,0.00036167,0,3882626,0 SPACEBEE-106,1 48893U 21059Q   23097.34120827  .00036167  00000-0  13714-2 0  9998,2 48893  97.5869 232.9355 0008235 167.1207 193.0244 15.26752139 98561,2021-059Q,48893,6863.666,94.318,491.183,479.879,0,
GENERATED VIA SPACETRACK.ORG API,18 SPCS,48893,SPACEBEE-106,PAYLOAD,U,21059Q,2023/4/7 20:46,420480,15.26789052,0.0008233,97.5872,233.4682,165.5645,194.583,0,999,9864,0.0012819,0.00033829,0,3882995,0 SPACEBEE-106,1 48893U 21059Q   23097.86552570  .00033829  00000-0  12819-2 0  9996,2 48893  97.5872 233.4682 0008233 165.5645 194.5830 15.26789052 98640,2021-059Q,48893,6863.556,94.316,491.071,479.77,0,
GENERATED VIA SPACETRACK.ORG API,18 SPCS,48893,SPACEBEE-106,PAYLOAD,U,21059Q,2023/4/8 7:46,968768,15.26819688,0.0008267,97.5872,233.9342,164.0116,196.1385,0,999,9871,0.0012584,0.00033236,0,3883527,0 SPACEBEE-106,1 48893U 21059Q   23098.32429362  .00033236  00000-0  12584-2 0  9991,2 48893  97.5872 233.9342 0008267 164.0116 196.1385 15.26819688 98712,2021-059Q,48893,6863.464,94.314,491.003,479.655,0,
GENERATED VIA SPACETRACK.ORG API,18 SPCS,48893,SPACEBEE-106,PAYLOAD,U,21059Q,2023/4/9 2:39,84096,15.26873624,0.0008371,97.5872,234.733,160.7463,199.4093,0,999,9883,0.0012403,0.00032809,0,3883890,0 SPACEBEE-106,1 48893U 21059Q   23099.11073014  .00032809  00000-0  12403-2 0  9993,2 48893  97.5872 234.7330 0008371 160.7463 199.4093 15.26873624 98837,2021-059Q,48893,6863.302,94.31,490.912,479.422,0,
GENERATED VIA SPACETRACK.ORG API,18 SPCS,48893,SPACEBEE-106,PAYLOAD,U,21059Q,2023/4/9 7:22,712896,15.26889775,0.0008364,97.5873,234.933,160.1097,200.0469,0,999,9886,0.0013086,0.00034645,0,3884332,0 SPACEBEE-106,1 48893U 21059Q   23099.30733464  .00034645  00000-0  13086-2 0  9994,2 48893  97.5873 234.9330 0008364 160.1097 200.0469 15.26889775 98862,2021-059Q,48893,6863.254,94.309,490.859,479.378,0,
GENERATED VIA SPACETRACK.ORG API,18 SPCS,48893,SPACEBEE-106,PAYLOAD,U,21059Q,2023/4/10 6:58,844640,15.26955342,0.0008334,97.5876,235.9318,156.9723,203.189,0,999,9901,0.0013442,0.00035665,0,3884761,0 SPACEBEE-106,1 48893U 21059Q   23100.29033385  .00035665  00000-0  13442-2 0  9999,2 48893  97.5876 235.9318 0008334 156.9723 203.1890 15.26955342 99012,2021-059Q,48893,6863.057,94.305,490.642,479.203,0,
GENERATED VIA SPACETRACK.ORG API,18 SPCS,48893,SPACEBEE-106,PAYLOAD,U,21059Q,2023/4/10 8:32,774880,15.26960455,0.0008363,97.5877,235.9984,156.8127,203.349,0,999,9902,0.0013503,0.00035834,0,3885195,0 SPACEBEE-106,1 48893U 21059Q   23100.35586545  .00035834  00000-0  13503-2 0  9993,2 48893  97.5877 235.9984 0008363 156.8127 203.3490 15.26960455 99021,2021-059Q,48893,6863.042,94.305,490.646,479.167,0,
GENERATED VIA SPACETRACK.ORG API,18 SPCS,48893,SPACEBEE-106,PAYLOAD,U,21059Q,2023/4/10 14:49,352416,15.26980622,0.0008354,97.5875,236.2649,156.0202,204.1427,0,999,9906,0.0014517,0.00038568,0,3885363,0 SPACEBEE-106,1 48893U 21059Q   23100.61799019  .00038568  00000-0  14517-2 0  9997,2 48893  97.5875 236.2649 0008354 156.0202 204.1427 15.26980622 99068,2021-059Q,48893,6862.981,94.304,490.58,479.113,0,
GENERATED VIA SPACETRACK.ORG API,18 SPCS,48893,SPACEBEE-106,PAYLOAD,U,21059Q,2023/4/11 8:07,676480,15.27029235,0.0008271,97.5875,236.9975,153.9982,206.1674,0,999,9917,0.0011984,0.00031843,0,3885667,0 SPACEBEE-106,1 48893U 21059Q   23101.33881570  .00031843  00000-0  11984-2 0  9995,2 48893  97.5875 236.9975 0008271 153.9982 206.1674 15.27029235 99179,2021-059Q,48893,6862.836,94.301,490.377,479.025,0,
GENERATED VIA SPACETRACK.ORG API,18 SPCS,48893,SPACEBEE-106,PAYLOAD,U,21059Q,2023/4/11 14:25,167968,15.27051635,0.0008224,97.5874,237.2639,153.2494,206.917,0,999,9921,0.0013796,0.00036717,0,3885783,0 SPACEBEE-106,1 48893U 21059Q   23101.60092787  .00036717  00000-0  13796-2 0  9997,2 48893  97.5874 237.2639 0008224 153.2494 206.9170 15.27051635 99211,2021-059Q,48893,6862.769,94.299,490.278,478.99,0,
